[{"OBJECT_NAME":"METOP-C","OBJECT_ID":"2018-087A","EPOCH":"2026-03-09T21:24:06.212448","MEAN_MOTION":14.21497031,"ECCENTRICITY":0.0002203,"INCLINATION":98.6765,"RA_OF_ASC_NODE":130.2612,"ARG_OF_PERICENTER":99.586,"MEAN_ANOMALY":260.5566,"EPHEMERIS_TYPE":0,"CLASSIFICATION_TYPE":"U","NORAD_CAT_ID":43689,"ELEMENT_SET_NO":999,"REV_AT_EPOCH":38072,"BSTAR":8.1967538e-5,"MEAN_MOTION_DOT":1.36e-6,"MEAN_MOTION_DDOT":0},{"OBJECT_NAME":"GEOS 3","OBJECT_ID":"1975-027A","EPOCH":"2026-03-09T16:28:33.104928","MEAN_MOTION":14.19165666,"ECCENTRICITY":0.00178327,"INCLINATION":114.9877,"RA_OF_ASC_NODE":7.463,"ARG_OF_PERICENTER":307.1574,"MEAN_ANOMALY":52.7876,"EPHEMERIS_TYPE":0,"CLASSIFICATION_TYPE":"U","NORAD_CAT_ID":7734,"ELEMENT_SET_NO":999,"REV_AT_EPOCH":63515,"BSTAR":6.5086005e-5,"MEAN_MOTION_DOT":-3.9e-7,"MEAN_MOTION_DDOT":0}]
